[{"OBJECT_NAME":"JILIN-1 06","OBJECT_ID":"2017-074C","EPOCH":"2026-03-09T22:46:57.173376","MEAN_MOTION":15.32444387,"ECCENTRICITY":0.00061285,"INCLINATION":97.4715,"RA_OF_ASC_NODE":171.0354,"ARG_OF_PERICENTER":223.0031,"MEAN_ANOMALY":137.0732,"EPHEMERIS_TYPE":0,"CLASSIFICATION_TYPE":"U","NORAD_CAT_ID":43024,"ELEMENT_SET_NO":999,"REV_AT_EPOCH":45863,"BSTAR":0.00028431628,"MEAN_MOTION_DOT":8.833e-5,"MEAN_MOTION_DDOT":0},{"OBJECT_NAME":"STARLINK-30882","OBJECT_ID":"2023-178F","EPOCH":"2026-03-09T04:23:59.133120","MEAN_MOTION":15.30193601,"ECCENTRICITY":0.00010164,"INCLINATION":53.1606,"RA_OF_ASC_NODE":3.4445,"ARG_OF_PERICENTER":69.5386,"MEAN_ANOMALY":290.5724,"EPHEMERIS_TYPE":0,"CLASSIFICATION_TYPE":"U","NORAD_CAT_ID":58379,"ELEMENT_SET_NO":999,"REV_AT_EPOCH":12981,"BSTAR":4.1421836e-5,"MEAN_MOTION_DOT":8.68e-6,"MEAN_MOTION_DDOT":0}]
